<?xml version="1.0" encoding="UTF-8"?>
<ndm xmlns:xsi="http://www.w3.org/2001/XMLSchema-instance" xsi:noNamespaceSchemaLocation="https://sanaregistry.org/r/ndmxml_unqualified/ndmxml-2.0.0-master-2.0.xsd">
<omm id="CCSDS_OMM_VERS" version="2.0">
<header><CREATION_DATE/><ORIGINATOR/></header><body><segment><metadata><OBJECT_NAME>KUIPER-00079</OBJECT_NAME><OBJECT_ID>2025-151L</OBJECT_ID><CENTER_NAME>EARTH</CENTER_NAME><REF_FRAME>TEME</REF_FRAME><TIME_SYSTEM>UTC</TIME_SYSTEM><MEAN_ELEMENT_THEORY>SGP4</MEAN_ELEMENT_THEORY></metadata><data><meanElements><EPOCH>2025-09-06T06:00:02.000160</EPOCH><MEAN_MOTION>15.11858911</MEAN_MOTION><ECCENTRICITY>.00099088</ECCENTRICITY><INCLINATION>51.8885</INCLINATION><RA_OF_ASC_NODE>39.0827</RA_OF_ASC_NODE><ARG_OF_PERICENTER>336.3081</ARG_OF_PERICENTER><MEAN_ANOMALY>291.5608</MEAN_ANOMALY></meanElements><tleParameters><EPHEMERIS_TYPE>0</EPHEMERIS_TYPE><CLASSIFICATION_TYPE>U</CLASSIFICATION_TYPE><NORAD_CAT_ID>64826</NORAD_CAT_ID><ELEMENT_SET_NO>999</ELEMENT_SET_NO><REV_AT_EPOCH>519</REV_AT_EPOCH><BSTAR>-.31220546E-3</BSTAR><MEAN_MOTION_DOT>-.5709E-4</MEAN_MOTION_DOT><MEAN_MOTION_DDOT>0</MEAN_MOTION_DDOT></tleParameters></data></segment></body></omm>
<omm id="CCSDS_OMM_VERS" version="2.0">
<header><CREATION_DATE/><ORIGINATOR/></header><body><segment><metadata><OBJECT_NAME>KUIPER-00080</OBJECT_NAME><OBJECT_ID>2025-151M</OBJECT_ID><CENTER_NAME>EARTH</CENTER_NAME><REF_FRAME>TEME</REF_FRAME><TIME_SYSTEM>UTC</TIME_SYSTEM><MEAN_ELEMENT_THEORY>SGP4</MEAN_ELEMENT_THEORY></metadata><data><meanElements><EPOCH>2025-09-06T06:00:02.000160</EPOCH><MEAN_MOTION>15.13810944</MEAN_MOTION><ECCENTRICITY>.00036357</ECCENTRICITY><INCLINATION>51.8920</INCLINATION><RA_OF_ASC_NODE>39.0629</RA_OF_ASC_NODE><ARG_OF_PERICENTER>5.1736</ARG_OF_PERICENTER><MEAN_ANOMALY>348.5993</MEAN_ANOMALY></meanElements><tleParameters><EPHEMERIS_TYPE>0</EPHEMERIS_TYPE><CLASSIFICATION_TYPE>U</CLASSIFICATION_TYPE><NORAD_CAT_ID>64827</NORAD_CAT_ID><ELEMENT_SET_NO>999</ELEMENT_SET_NO><REV_AT_EPOCH>485</REV_AT_EPOCH><BSTAR>-.9896697E-1</BSTAR><MEAN_MOTION_DOT>-.1637932E-1</MEAN_MOTION_DOT><MEAN_MOTION_DDOT>0</MEAN_MOTION_DDOT></tleParameters></data></segment></body></omm>
<omm id="CCSDS_OMM_VERS" version="2.0">
<header><CREATION_DATE/><ORIGINATOR/></header><body><segment><metadata><OBJECT_NAME>KUIPER-00082</OBJECT_NAME><OBJECT_ID>2025-151N</OBJECT_ID><CENTER_NAME>EARTH</CENTER_NAME><REF_FRAME>TEME</REF_FRAME><TIME_SYSTEM>UTC</TIME_SYSTEM><MEAN_ELEMENT_THEORY>SGP4</MEAN_ELEMENT_THEORY></metadata><data><meanElements><EPOCH>2025-09-06T02:55:13.377504</EPOCH><MEAN_MOTION>15.36791894</MEAN_MOTION><ECCENTRICITY>.00062494</ECCENTRICITY><INCLINATION>51.8793</INCLINATION><RA_OF_ASC_NODE>37.4147</RA_OF_ASC_NODE><ARG_OF_PERICENTER>325.0159</ARG_OF_PERICENTER><MEAN_ANOMALY>35.0417</MEAN_ANOMALY></meanElements><tleParameters><EPHEMERIS_TYPE>0</EPHEMERIS_TYPE><CLASSIFICATION_TYPE>U</CLASSIFICATION_TYPE><NORAD_CAT_ID>64828</NORAD_CAT_ID><ELEMENT_SET_NO>999</ELEMENT_SET_NO><REV_AT_EPOCH>796</REV_AT_EPOCH><BSTAR>.12967604E-2</BSTAR><MEAN_MOTION_DOT>.4728E-3</MEAN_MOTION_DOT><MEAN_MOTION_DDOT>0</MEAN_MOTION_DDOT></tleParameters></data></segment></body></omm>
<omm id="CCSDS_OMM_VERS" version="2.0">
<header><CREATION_DATE/><ORIGINATOR/></header><body><segment><metadata><OBJECT_NAME>KUIPER-00083</OBJECT_NAME><OBJECT_ID>2025-151P</OBJECT_ID><CENTER_NAME>EARTH</CENTER_NAME><REF_FRAME>TEME</REF_FRAME><TIME_SYSTEM>UTC</TIME_SYSTEM><MEAN_ELEMENT_THEORY>SGP4</MEAN_ELEMENT_THEORY></metadata><data><meanElements><EPOCH>2025-09-06T06:00:02.000160</EPOCH><MEAN_MOTION>15.23830375</MEAN_MOTION><ECCENTRICITY>.00084176</ECCENTRICITY><INCLINATION>51.8812</INCLINATION><RA_OF_ASC_NODE>37.4912</RA_OF_ASC_NODE><ARG_OF_PERICENTER>339.3215</ARG_OF_PERICENTER><MEAN_ANOMALY>6.9093</MEAN_ANOMALY></meanElements><tleParameters><EPHEMERIS_TYPE>0</EPHEMERIS_TYPE><CLASSIFICATION_TYPE>U</CLASSIFICATION_TYPE><NORAD_CAT_ID>64829</NORAD_CAT_ID><ELEMENT_SET_NO>999</ELEMENT_SET_NO><REV_AT_EPOCH>485</REV_AT_EPOCH><BSTAR>-.28436633E-1</BSTAR><MEAN_MOTION_DOT>-.646756E-2</MEAN_MOTION_DOT><MEAN_MOTION_DDOT>0</MEAN_MOTION_DDOT></tleParameters></data></segment></body></omm>
<omm id="CCSDS_OMM_VERS" version="2.0">
<header><CREATION_DATE/><ORIGINATOR/></header><body><segment><metadata><OBJECT_NAME>KUIPER-00084</OBJECT_NAME><OBJECT_ID>2025-151Q</OBJECT_ID><CENTER_NAME>EARTH</CENTER_NAME><REF_FRAME>TEME</REF_FRAME><TIME_SYSTEM>UTC</TIME_SYSTEM><MEAN_ELEMENT_THEORY>SGP4</MEAN_ELEMENT_THEORY></metadata><data><meanElements><EPOCH>2025-09-06T06:00:02.000160</EPOCH><MEAN_MOTION>14.97256699</MEAN_MOTION><ECCENTRICITY>.00106318</ECCENTRICITY><INCLINATION>51.8945</INCLINATION><RA_OF_ASC_NODE>42.0519</RA_OF_ASC_NODE><ARG_OF_PERICENTER>328.7751</ARG_OF_PERICENTER><MEAN_ANOMALY>253.7801</MEAN_ANOMALY></meanElements><tleParameters><EPHEMERIS_TYPE>0</EPHEMERIS_TYPE><CLASSIFICATION_TYPE>U</CLASSIFICATION_TYPE><NORAD_CAT_ID>64830</NORAD_CAT_ID><ELEMENT_SET_NO>999</ELEMENT_SET_NO><REV_AT_EPOCH>582</REV_AT_EPOCH><BSTAR>.26724612E-2</BSTAR><MEAN_MOTION_DOT>.31204E-3</MEAN_MOTION_DOT><MEAN_MOTION_DDOT>0</MEAN_MOTION_DDOT></tleParameters></data></segment></body></omm>
<omm id="CCSDS_OMM_VERS" version="2.0">
<header><CREATION_DATE/><ORIGINATOR/></header><body><segment><metadata><OBJECT_NAME>KUIPER-00085</OBJECT_NAME><OBJECT_ID>2025-151R</OBJECT_ID><CENTER_NAME>EARTH</CENTER_NAME><REF_FRAME>TEME</REF_FRAME><TIME_SYSTEM>UTC</TIME_SYSTEM><MEAN_ELEMENT_THEORY>SGP4</MEAN_ELEMENT_THEORY></metadata><data><meanElements><EPOCH>2025-09-06T02:47:37.951008</EPOCH><MEAN_MOTION>15.36979405</MEAN_MOTION><ECCENTRICITY>.00070662</ECCENTRICITY><INCLINATION>51.8795</INCLINATION><RA_OF_ASC_NODE>37.3843</RA_OF_ASC_NODE><ARG_OF_PERICENTER>324.0184</ARG_OF_PERICENTER><MEAN_ANOMALY>36.0326</MEAN_ANOMALY></meanElements><tleParameters><EPHEMERIS_TYPE>0</EPHEMERIS_TYPE><CLASSIFICATION_TYPE>U</CLASSIFICATION_TYPE><NORAD_CAT_ID>64831</NORAD_CAT_ID><ELEMENT_SET_NO>999</ELEMENT_SET_NO><REV_AT_EPOCH>796</REV_AT_EPOCH><BSTAR>.16673755E-2</BSTAR><MEAN_MOTION_DOT>.61401E-3</MEAN_MOTION_DOT><MEAN_MOTION_DDOT>0</MEAN_MOTION_DDOT></tleParameters></data></segment></body></omm>
<omm id="CCSDS_OMM_VERS" version="2.0">
<header><CREATION_DATE/><ORIGINATOR/></header><body><segment><metadata><OBJECT_NAME>KUIPER-00086</OBJECT_NAME><OBJECT_ID>2025-151S</OBJECT_ID><CENTER_NAME>EARTH</CENTER_NAME><REF_FRAME>TEME</REF_FRAME><TIME_SYSTEM>UTC</TIME_SYSTEM><MEAN_ELEMENT_THEORY>SGP4</MEAN_ELEMENT_THEORY></metadata><data><meanElements><EPOCH>2025-09-06T06:00:02.000160</EPOCH><MEAN_MOTION>15.18208661</MEAN_MOTION><ECCENTRICITY>.0010019</ECCENTRICITY><INCLINATION>51.8826</INCLINATION><RA_OF_ASC_NODE>38.1942</RA_OF_ASC_NODE><ARG_OF_PERICENTER>327.9829</ARG_OF_PERICENTER><MEAN_ANOMALY>24.8755</MEAN_ANOMALY></meanElements><tleParameters><EPHEMERIS_TYPE>0</EPHEMERIS_TYPE><CLASSIFICATION_TYPE>U</CLASSIFICATION_TYPE><NORAD_CAT_ID>64832</NORAD_CAT_ID><ELEMENT_SET_NO>999</ELEMENT_SET_NO><REV_AT_EPOCH>574</REV_AT_EPOCH><BSTAR>-.29270407E-1</BSTAR><MEAN_MOTION_DOT>-.569434E-2</MEAN_MOTION_DOT><MEAN_MOTION_DDOT>0</MEAN_MOTION_DDOT></tleParameters></data></segment></body></omm>
<omm id="CCSDS_OMM_VERS" version="2.0">
<header><CREATION_DATE/><ORIGINATOR/></header><body><segment><metadata><OBJECT_NAME>KUIPER-00087</OBJECT_NAME><OBJECT_ID>2025-151T</OBJECT_ID><CENTER_NAME>EARTH</CENTER_NAME><REF_FRAME>TEME</REF_FRAME><TIME_SYSTEM>UTC</TIME_SYSTEM><MEAN_ELEMENT_THEORY>SGP4</MEAN_ELEMENT_THEORY></metadata><data><meanElements><EPOCH>2025-09-06T02:59:55.756032</EPOCH><MEAN_MOTION>15.36679717</MEAN_MOTION><ECCENTRICITY>.0005894</ECCENTRICITY><INCLINATION>51.8796</INCLINATION><RA_OF_ASC_NODE>37.4396</RA_OF_ASC_NODE><ARG_OF_PERICENTER>328.8994</ARG_OF_PERICENTER><MEAN_ANOMALY>31.1643</MEAN_ANOMALY></meanElements><tleParameters><EPHEMERIS_TYPE>0</EPHEMERIS_TYPE><CLASSIFICATION_TYPE>U</CLASSIFICATION_TYPE><NORAD_CAT_ID>64833</NORAD_CAT_ID><ELEMENT_SET_NO>999</ELEMENT_SET_NO><REV_AT_EPOCH>796</REV_AT_EPOCH><BSTAR>.11032693E-2</BSTAR><MEAN_MOTION_DOT>.3998E-3</MEAN_MOTION_DOT><MEAN_MOTION_DDOT>0</MEAN_MOTION_DDOT></tleParameters></data></segment></body></omm>

</ndm>
