KUIPER-00079            
1 64826U 25151L   25249.25002315 -.00005709  00000+0 -31221-3 0  9994
2 64826  51.8885  39.0827 0009908 336.3081 291.5608 15.11858911  5198
KUIPER-00080            
1 64827U 25151M   25249.25002315 -.01637932  00000+0 -98967-1 0  9993
2 64827  51.8920  39.0629 0003635   5.1736 348.5993 15.13810944  4856
KUIPER-00082            
1 64828U 25151N   25249.12168261  .00047280  00000+0  12968-2 0  9999
2 64828  51.8793  37.4147 0006249 325.0159  35.0417 15.36791894  7960
KUIPER-00083            
1 64829U 25151P   25249.25002315 -.00646756  00000+0 -28437-1 0  9993
2 64829  51.8812  37.4912 0008417 339.3215   6.9093 15.23830375  4859
KUIPER-00084            
1 64830U 25151Q   25249.25002315  .00031204  00000+0  26725-2 0  9998
2 64830  51.8945  42.0519 0010631 328.7751 253.7801 14.97256699  5829
KUIPER-00085            
1 64831U 25151R   25249.11641147  .00061401  00000+0  16674-2 0  9990
2 64831  51.8795  37.3843 0007066 324.0184  36.0326 15.36979405  7969
KUIPER-00086            
1 64832U 25151S   25249.25002315 -.00569434  00000+0 -29270-1 0  9990
2 64832  51.8826  38.1942 0010019 327.9829  24.8755 15.18208661  5748
KUIPER-00087            
1 64833U 25151T   25249.12495088  .00039980  00000+0  11033-2 0  9995
2 64833  51.8796  37.4396 0005894 328.8994  31.1643 15.36679717  7965
